H1 CPF  1  SGF 2022  2 24  2  5551 larets    
H2  0304206 5557    27944 2022  2 23  0  0  0 2022  2 28 23 57  0   180 1 1  0 0 0
H9
10 0 59638  28080.00000  0  -1088106.841   3982483.685   5729205.053
10 0 59638  28260.00000  0   -965088.994   5029197.706   4863075.048
10 0 59638  28440.00000  0   -781994.563   5889232.468   3819038.708
10 0 59638  28620.00000  0   -550776.399   6529715.996   2635149.136
10 0 59638  28800.00000  0   -285911.174   6926087.572   1354679.713
10 0 59638  28980.00000  0     -3641.298   7063110.247     24531.660
10 0 59638  29160.00000  0    278878.413   6935507.043  -1306516.810
10 0 59638  29340.00000  0    544482.221   6548183.836  -2589652.189
10 0 59638  29520.00000  0    776890.439   5916020.198  -3777865.947
10 0 59638  29700.00000  0    961559.693   5063251.436  -4827710.659
10 0 59638  29880.00000  0   1086444.725   4022473.493  -5700899.177
10 0 59638  30060.00000  0   1142632.191   2833328.315  -6365681.732
10 0 59638  30240.00000  0   1124816.674   1540938.479  -6797958.491
10 0 59638  30420.00000  0   1031601.770    194166.277  -6982099.793
10 0 59638  30600.00000  0    865616.787  -1156236.322  -6911468.428
10 0 59638  30780.00000  0    633444.377  -2459526.032  -6588632.979
10 0 59638  30960.00000  0    345364.669  -3666850.974  -6025280.187
10 0 59638  31140.00000  0     14920.616  -4733076.442  -5241828.319
10 0 59638  31320.00000  0   -341679.870  -5618488.671  -4266733.668
10 0 59638  31500.00000  0   -706305.858  -6290316.742  -3135505.685
10 0 59638  31680.00000  0  -1059760.800  -6724007.345  -1889446.176
10 0 59638  31860.00000  0  -1382717.169  -6904190.398   -574148.457
10 0 59638  32040.00000  0  -1656681.683  -6825278.768    762194.644
10 0 59638  32220.00000  0  -1864942.178  -6491662.692   2070599.725
10 0 59638  32400.00000  0  -1993445.826  -5917486.705   3303138.695
10 0 59638  32580.00000  0  -2031559.179  -5126018.319   4414735.927
10 0 59638  32760.00000  0  -1972669.997  -4148649.789   5364832.274
10 0 59638  32940.00000  0  -1814607.057  -3023594.298   6118853.653
10 0 59638  33120.00000  0  -1559857.910  -1794338.795   6649433.696
10 0 59638  33300.00000  0  -1215576.601   -507935.457   6937355.249
10 0 59638  33480.00000  0   -793390.383    786803.939   6972199.051
10 0 59638  33660.00000  0   -309010.146   2041145.948   6752691.501
10 0 59638  33840.00000  0    218349.320   3208251.959   6286750.379
10 0 59638  34020.00000  0    766718.831   4244916.357   5591223.486
10 0 59638  34200.00000  0   1312269.115   5113174.858   4691325.037
10 0 59638  34380.00000  0   1830322.420   5781728.419   3619773.217
10 0 59638  34560.00000  0   2296443.916   6227126.685   2415647.594
10 0 59638  34740.00000  0   2687567.875   6434660.430   1122981.467
10 0 59638  34920.00000  0   2983097.649   6398899.317   -210865.909
10 0 59638  35100.00000  0   3165921.992   6123843.123  -1536981.290
10 0 59638  35280.00000  0   3223297.865   5622680.912  -2806739.054
10 0 59638  35460.00000  0   3147550.535   4917166.746  -3973633.324
10 0 59638  35640.00000  0   2936550.908   4036641.736  -4995015.318
10 0 59638  35820.00000  0   2593947.472   3016764.077  -5833655.962
10 0 59638  36000.00000  0   2129149.420   1898017.041  -6459079.121
10 0 59638  36180.00000  0   1557065.188    724066.831  -6848623.263
10 0 59638  36360.00000  0    897613.779   -459953.203  -6988209.162
10 0 59638  36540.00000  0    175024.165  -1609170.712  -6872809.138
10 0 59638  36720.00000  0   -583051.540  -2680656.400  -6506606.957
10 0 59638  36900.00000  0  -1346582.909  -3635011.054  -5902859.662
10 0 59638  37080.00000  0  -2084335.250  -4437815.384  -5083453.510
10 0 59638  37260.00000  0  -2765134.836  -5060893.750  -4078162.398
10 0 59638  37440.00000  0  -3359183.317  -5483346.107  -2923612.039
10 0 59638  37620.00000  0  -3839362.242  -5692296.620  -1661973.544
10 0 59638  37800.00000  0  -4182468.591  -5683323.313   -339425.458
10 0 59638  37980.00000  0  -4370315.305  -5460538.741    995564.006
10 0 59638  38160.00000  0  -4390634.707  -5036310.810   2294060.537
10 0 59638  38340.00000  0  -4237735.072  -4430633.678   3508508.670
10 0 59638  38520.00000  0  -3912877.118  -3670186.519   4594509.400
10 0 59638  38700.00000  0  -3424354.542  -2787133.983   5512455.854
10 0 59638  38880.00000  0  -2787279.953  -1817734.653   6228958.452
10 0 59638  39060.00000  0  -2023094.684   -800833.223   6718020.779
10 0 59638  39240.00000  0  -1158822.473    223706.343   6961936.731
10 0 59638  39420.00000  0   -226101.045   1216556.514   6951881.060
10 0 59638  39600.00000  0    739968.617   2140418.106   6688204.048
10 0 59638  39780.00000  0   1702129.263   2961409.186   6180422.042
10 0 59638  39960.00000  0   2622388.226   3650303.130   5446902.757
10 0 59638  40140.00000  0   3463509.971   4183583.677   4514251.396
10 0 59638  40320.00000  0   4190529.175   4544275.907   3416395.878
10 0 59638  40500.00000  0   4772224.452   4722521.613   2193395.626
10 0 59638  40680.00000  0   5182487.744   4715866.082    889990.088
10 0 59638  40860.00000  0   5401513.202   4529235.205   -446054.031
10 0 59638  41040.00000  0   5416741.711   4174596.355  -1765737.749
10 0 59638  41220.00000  0   5223504.313   3670318.251  -3020677.978
10 0 59638  41400.00000  0   4825335.582   3040266.267  -4164926.234
10 0 59638  41580.00000  0   4233939.791   2312684.796  -5156679.147
10 0 59638  41760.00000  0   3468815.961   1518922.281  -5959806.120
10 0 59638  41940.00000  0   2556568.569    692069.614  -6545136.247
10 0 59638  42120.00000  0   1529940.002   -134421.587  -6891469.208
10 0 59638  42300.00000  0    426614.295   -928084.024  -6986291.811
10 0 59638  42480.00000  0   -712169.957  -1658697.145  -6826193.318
10 0 59638  42660.00000  0  -1843148.341  -2299422.183  -6416973.502
10 0 59638  42840.00000  0  -2922657.232  -2827781.296  -5773448.782
10 0 59638  43020.00000  0  -3908307.647  -3226450.061  -4918955.965
10 0 59638  43200.00000  0  -4760659.304  -3483841.333  -3884559.137
10 0 59638  43380.00000  0  -5444827.787  -3594452.268  -2707963.381
10 0 59638  43560.00000  0  -5931954.002  -3558957.042  -1432164.164
10 0 59638  43740.00000  0  -6200462.466  -3384035.944   -103871.766
10 0 59638  43920.00000  0  -6237041.131  -3081944.925   1228228.478
10 0 59638  44100.00000  0  -6037286.609  -2669845.055   2515309.797
10 0 59638  44280.00000  0  -5605971.171  -2168923.567   3710244.374
10 0 59638  44460.00000  0  -4956925.994  -1603358.247   4769362.937
10 0 59638  44640.00000  0  -4112547.274   -999178.240   5654057.366
10 0 59638  44820.00000  0  -3102967.816   -383087.208   6332162.929
10 0 59638  45000.00000  0  -1964933.751    218700.127   6779088.529
10 0 59638  45180.00000  0   -740433.128    781554.985   6978656.913
10 0 59638  45360.00000  0    524859.327   1283422.588   6923645.705
10 0 59638  45540.00000  0   1783271.422   1705673.926   6616028.026
10 0 59638  45720.00000  0   2986909.302   2033793.048   6066908.819
10 0 59638  45900.00000  0   4089467.528   2257877.359   5296158.956
10 0 59638  46080.00000  0   5048017.345   2372936.951   4331746.657
10 0 59638  46260.00000  0   5824709.333   2378984.227   3208777.168
10 0 59638  46440.00000  0   6388323.975   2280903.148   1968247.118
10 0 59638  46620.00000  0   6715585.060   2088101.517    655555.907
10 0 59638  46800.00000  0   6792174.407   1813959.624   -681178.219
10 0 59638  46980.00000  0   6613379.532   1475101.407  -1992928.220
10 0 59638  47160.00000  0   6184343.291   1090523.164  -3231606.057
10 0 59638  47340.00000  0   5519901.765    680626.528  -4351872.061
10 0 59638  47520.00000  0   4644014.071    266210.567  -5312819.113
10 0 59638  47700.00000  0   3588827.669   -132524.330  -6079457.647
10 0 59638  47880.00000  0   2393436.429   -496910.764  -6623955.942
10 0 59638  48060.00000  0   1102387.006   -810647.785  -6926601.557
10 0 59638  48240.00000  0   -235998.105  -1060500.691  -6976465.269
10 0 59638  48420.00000  0  -1571425.135  -1236840.785  -6771761.936
10 0 59638  48600.00000  0  -2853501.460  -1334009.975  -6319906.259
10 0 59638  48780.00000  0  -4033619.348  -1350499.337  -5637261.774
10 0 59638  48960.00000  0  -5066796.064  -1288938.265  -4748593.901
10 0 59638  49140.00000  0  -5913415.541  -1155893.630  -3686223.283
10 0 59638  49320.00000  0  -6540798.127   -961484.609  -2488892.964
10 0 59638  49500.00000  0  -6924528.352   -718827.143  -1200374.696
10 0 59638  49680.00000  0  -7049470.201   -443331.797    132141.191
10 0 59638  49860.00000  0  -6910408.164   -151885.344   1459811.860
10 0 59638  50040.00000  0  -6512275.489    138037.642   2733980.111
10 0 59638  50220.00000  0  -5869959.051    409284.995   3908005.318
10 0 59638  50400.00000  0  -5007689.332    645912.804   4939001.541
10 0 59638  50580.00000  0  -3958057.008    833998.783   5789404.180
10 0 59638  50760.00000  0  -2760717.805    962344.953   6428310.257
10 0 59638  50940.00000  0  -1460847.925   1023037.870   6832558.797
10 0 59638  51120.00000  0   -107413.798   1011846.746   6987520.625
10 0 59638  51300.00000  0   1248669.641    928443.789   6887584.130
10 0 59638  51480.00000  0   2556433.155    776440.810   6536342.191
10 0 59638  51660.00000  0   3766748.590    563241.292   5946477.725
10 0 59638  51840.00000  0   4834171.179    299711.081   5139344.813
10 0 59638  52020.00000  0   5718665.453      -323.333   4144247.510
10 0 59638  52200.00000  0   6387155.235   -320731.083   2997426.863
10 0 59638  52380.00000  0   6814829.622   -643859.096   1740770.391
10 0 59638  52560.00000  0   6986132.540   -951409.811    420283.780
10 0 59638  52740.00000  0   6895387.373  -1225370.149   -915617.695
10 0 59638  52920.00000  0   6547012.084  -1448943.428  -2217933.966
10 0 59638  53100.00000  0   5955306.307  -1607433.669  -3438931.278
10 0 59638  53280.00000  0   5143826.010  -1689034.717  -4533932.864
10 0 59638  53460.00000  0   4144386.233  -1685482.463  -5462970.496
99
